{"type": "FeatureCollection", "features": [{"type": "Feature", "properties": {"norad_id": 22490, "name": "SCD 1", "group": "resource", "lat": 0.10758122799651229, "lon": -128.85874015878505, "alt_km": 716.0964586207419, "timestamp": "2025-12-20T11:30:28.027400+00:00", "meta": {"OBJECT_NAME": "SCD 1", "OBJECT_ID": "1993-009B", "EPOCH": "2025-12-20T02:06:40.199328", "MEAN_MOTION": 14.46003712, "ECCENTRICITY": 0.00421, "INCLINATION": 24.9683, "RA_OF_ASC_NODE": 233.3258, "ARG_OF_PERICENTER": 42.7923, "MEAN_ANOMALY": 75.5892, "EPHEMERIS_TYPE": 0, "CLASSIFICATION_TYPE": "U", "NORAD_CAT_ID": 22490, "ELEMENT_SET_NO": 999, "REV_AT_EPOCH": 73516, "BSTAR": 6.2478e-05, "MEAN_MOTION_DOT": 4.13e-06, "MEAN_MOTION_DDOT": 0}, "tle": {"line1": "1 22490U 93009B   25354.08796527  .00000413  00000+0  62478-4 0  9999", "line2": "2 22490  24.9683 233.3258 0042100  42.7923  75.5892 14.46003712735167"}}, "geometry": {"type": "Point", "coordinates": [-128.85874015878505, 0.10758122799651229]}}, {"type": "Feature", "properties": {"norad_id": 25397, "name": "TECHSAT 1B (GO-32)", "group": "resource", "lat": -53.524338829822376, "lon": 145.50217905685705, "alt_km": 818.8300422375623, "timestamp": "2025-12-20T11:30:28.027431+00:00", "meta": {"OBJECT_NAME": "TECHSAT 1B (GO-32)", "OBJECT_ID": "1998-043D", "EPOCH": "2025-12-19T22:36:33.577056", "MEAN_MOTION": 14.24378966, "ECCENTRICITY": 0.0001832, "INCLINATION": 98.9926, "RA_OF_ASC_NODE": 337.3205, "ARG_OF_PERICENTER": 45.9373, "MEAN_ANOMALY": 314.1956, "EPHEMERIS_TYPE": 0, "CLASSIFICATION_TYPE": "U", "NORAD_CAT_ID": 25397, "ELEMENT_SET_NO": 999, "REV_AT_EPOCH": 42581, "BSTAR": 4.0104e-05, "MEAN_MOTION_DOT": 4.6e-07, "MEAN_MOTION_DDOT": 0}, "tle": {"line1": "1 25397U 98043D   25353.94205529  .00000046  00000+0  40104-4 0  9996", "line2": "2 25397  98.9926 337.3205 0001832  45.9373 314.1956 14.24378966425818"}}, "geometry": {"type": "Point", "coordinates": [145.50217905685705, -53.524338829822376]}}, {"type": "Feature", "properties": {"norad_id": 25504, "name": "SCD 2", "group": "resource", "lat": 6.861427422111911, "lon": 109.14079365941893, "alt_km": 726.2888674136902, "timestamp": "2025-12-20T11:30:28.027448+00:00", "meta": {"OBJECT_NAME": "SCD 2", "OBJECT_ID": "1998-060A", "EPOCH": "2025-12-20T00:34:20.176896", "MEAN_MOTION": 14.45427003, "ECCENTRICITY": 0.0016959, "INCLINATION": 24.9945, "RA_OF_ASC_NODE": 96.9807, "ARG_OF_PERICENTER": 30.6376, "MEAN_ANOMALY": 130.1203, "EPHEMERIS_TYPE": 0, "CLASSIFICATION_TYPE": "U", "NORAD_CAT_ID": 25504, "ELEMENT_SET_NO": 999, "REV_AT_EPOCH": 43437, "BSTAR": 4.6916e-05, "MEAN_MOTION_DOT": 3.5e-06, "MEAN_MOTION_DDOT": 0}, "tle": {"line1": "1 25504U 98060A   25354.02384464  .00000350  00000+0  46916-4 0  9996", "line2": "2 25504  24.9945  96.9807 0016959  30.6376 130.1203 14.45427003434376"}}, "geometry": {"type": "Point", "coordinates": [109.14079365941893, 6.861427422111911]}}, {"type": "Feature", "properties": {"norad_id": 25757, "name": "DLR-TUBSAT", "group": "resource", "lat": 28.480985997256496, "lon": 163.97314430391776, "alt_km": 707.0495654105089, "timestamp": "2025-12-20T11:30:28.027461+00:00", "meta": {"OBJECT_NAME": "DLR-TUBSAT", "OBJECT_ID": "1999-029B", "EPOCH": "2025-12-17T13:22:10.787520", "MEAN_MOTION": 14.52359578, "ECCENTRICITY": 0.00141996, "INCLINATION": 98.6566, "RA_OF_ASC_NODE": 336.2196, "ARG_OF_PERICENTER": 177.8976, "MEAN_ANOMALY": 182.2281, "EPHEMERIS_TYPE": 0, "CLASSIFICATION_TYPE": "U", "NORAD_CAT_ID": 25757, "ELEMENT_SET_NO": 999, "REV_AT_EPOCH": 40688, "BSTAR": 3.7650132e-05, "MEAN_MOTION_DOT": 1.05e-06, "MEAN_MOTION_DDOT": 0}, "tle": {"line1": "1 25757U 99029B   25351.55706930  .00000105  00000+0  37650-4 0  9996", "line2": "2 25757  98.6566 336.2196 0014199 177.8976 182.2281 14.52359578406886"}}, "geometry": {"type": "Point", "coordinates": [163.97314430391776, 28.480985997256496]}}, {"type": "Feature", "properties": {"norad_id": 25994, "name": "TERRA", "group": "resource", "lat": 81.84414676341466, "lon": -56.15260828268604, "alt_km": 680.3348088926887, "timestamp": "2025-12-20T11:30:28.027474+00:00", "meta": {"OBJECT_NAME": "TERRA", "OBJECT_ID": "1999-068A", "EPOCH": "2025-12-20T02:59:48.748992", "MEAN_MOTION": 14.60909526, "ECCENTRICITY": 0.0003544, "INCLINATION": 97.9738, "RA_OF_ASC_NODE": 45.538, "ARG_OF_PERICENTER": 79.9077, "MEAN_ANOMALY": 307.8381, "EPHEMERIS_TYPE": 0, "CLASSIFICATION_TYPE": "U", "NORAD_CAT_ID": 25994, "ELEMENT_SET_NO": 999, "REV_AT_EPOCH": 38346, "BSTAR": 7.5299e-05, "MEAN_MOTION_DOT": 3.24e-06, "MEAN_MOTION_DDOT": 0}, "tle": {"line1": "1 25994U 99068A   25354.12486978  .00000324  00000+0  75299-4 0  9999", "line2": "2 25994  97.9738  45.5380 0003544  79.9077 307.8381 14.60909526383460"}}, "geometry": {"type": "Point", "coordinates": [-56.15260828268604, 81.84414676341466]}}, {"type": "Feature", "properties": {"norad_id": 27004, "name": "MAROC-TUBSAT", "group": "resource", "lat": 75.28172952703655, "lon": 121.96065591562665, "alt_km": 1004.789344707312, "timestamp": "2025-12-20T11:30:28.027486+00:00", "meta": {"OBJECT_NAME": "MAROC-TUBSAT", "OBJECT_ID": "2001-056D", "EPOCH": "2025-12-20T02:54:22.118112", "MEAN_MOTION": 13.70253257, "ECCENTRICITY": 0.0019172, "INCLINATION": 99.7914, "RA_OF_ASC_NODE": 162.6953, "ARG_OF_PERICENTER": 240.5213, "MEAN_ANOMALY": 231.4874, "EPHEMERIS_TYPE": 0, "CLASSIFICATION_TYPE": "U", "NORAD_CAT_ID": 27004, "ELEMENT_SET_NO": 999, "REV_AT_EPOCH": 20166, "BSTAR": 1.892e-05, "MEAN_MOTION_DOT": -3e-07, "MEAN_MOTION_DDOT": 0}, "tle": {"line1": "1 27004U 01056D   25354.12108933 -.00000030  00000+0  18920-4 0  9998", "line2": "2 27004  99.7914 162.6953 0019172 240.5213 231.4874 13.70253257201662"}}, "geometry": {"type": "Point", "coordinates": [121.96065591562665, 75.28172952703655]}}, {"type": "Feature", "properties": {"norad_id": 27424, "name": "AQUA", "group": "resource", "lat": -7.63483692537003, "lon": -43.37975829687983, "alt_km": 691.6518532533719, "timestamp": "2025-12-20T11:30:28.027498+00:00", "meta": {"OBJECT_NAME": "AQUA", "OBJECT_ID": "2002-022A", "EPOCH": "2025-12-19T19:17:33.406368", "MEAN_MOTION": 14.61824191, "ECCENTRICITY": 0.00013487, "INCLINATION": 98.4046, "RA_OF_ASC_NODE": 314.798, "ARG_OF_PERICENTER": 112.3467, "MEAN_ANOMALY": 286.6091, "EPHEMERIS_TYPE": 0, "CLASSIFICATION_TYPE": "U", "NORAD_CAT_ID": 27424, "ELEMENT_SET_NO": 999, "REV_AT_EPOCH": 25706, "BSTAR": 0.00015509968, "MEAN_MOTION_DOT": 7.25e-06, "MEAN_MOTION_DDOT": 0}, "tle": {"line1": "1 27424U 02022A   25353.80385887  .00000725  00000+0  15510-3 0  9998", "line2": "2 27424  98.4046 314.7980 0001348 112.3467 286.6091 14.61824191257063"}}, "geometry": {"type": "Point", "coordinates": [-43.37975829687983, -7.63483692537003]}}, {"type": "Feature", "properties": {"norad_id": 28051, "name": "IRS-P6 (RESOURCESAT-1)", "group": "resource", "lat": -40.70745151892552, "lon": -152.61343394559063, "alt_km": 757.2236421909365, "timestamp": "2025-12-20T11:30:28.027510+00:00", "meta": {"OBJECT_NAME": "IRS-P6 (RESOURCESAT-1)", "OBJECT_ID": "2003-046A", "EPOCH": "2025-12-20T04:13:25.624992", "MEAN_MOTION": 14.36077921, "ECCENTRICITY": 0.0064625, "INCLINATION": 98.2171, "RA_OF_ASC_NODE": 34.2388, "ARG_OF_PERICENTER": 158.4359, "MEAN_ANOMALY": 293.8794, "EPHEMERIS_TYPE": 0, "CLASSIFICATION_TYPE": "U", "NORAD_CAT_ID": 28051, "ELEMENT_SET_NO": 999, "REV_AT_EPOCH": 15483, "BSTAR": 5.3831e-05, "MEAN_MOTION_DOT": 1.2e-06, "MEAN_MOTION_DDOT": 0}, "tle": {"line1": "1 28051U 03046A   25354.17599103  .00000120  00000+0  53831-4 0  9999", "line2": "2 28051  98.2171  34.2388 0064625 158.4359 293.8794 14.36077921154835"}}, "geometry": {"type": "Point", "coordinates": [-152.61343394559063, -40.70745151892552]}}, {"type": "Feature", "properties": {"norad_id": 28220, "name": "SHIYAN-1 (SY-1)", "group": "resource", "lat": 41.14053274200943, "lon": -116.56314936175866, "alt_km": 480.85880901514975, "timestamp": "2025-12-20T11:30:28.027521+00:00", "meta": {"OBJECT_NAME": "SHIYAN-1 (SY-1)", "OBJECT_ID": "2004-012A", "EPOCH": "2025-12-20T03:02:51.484992", "MEAN_MOTION": 15.28323257, "ECCENTRICITY": 0.0005246, "INCLINATION": 97.893, "RA_OF_ASC_NODE": 56.1022, "ARG_OF_PERICENTER": 295.057, "MEAN_ANOMALY": 65.0123, "EPHEMERIS_TYPE": 0, "CLASSIFICATION_TYPE": "U", "NORAD_CAT_ID": 28220, "ELEMENT_SET_NO": 999, "REV_AT_EPOCH": 18369, "BSTAR": 0.00034013, "MEAN_MOTION_DOT": 9.306e-05, "MEAN_MOTION_DDOT": 0}, "tle": {"line1": "1 28220U 04012A   25354.12698478  .00009306  00000+0  34013-3 0  9996", "line2": "2 28220  97.8930  56.1022 0005246 295.0570  65.0123 15.28323257183695"}}, "geometry": {"type": "Point", "coordinates": [-116.56314936175866, 41.14053274200943]}}, {"type": "Feature", "properties": {"norad_id": 28376, "name": "AURA", "group": "resource", "lat": 77.26277586010177, "lon": 165.084453782611, "alt_km": 681.8335952175294, "timestamp": "2025-12-20T11:30:28.027532+00:00", "meta": {"OBJECT_NAME": "AURA", "OBJECT_ID": "2004-026A", "EPOCH": "2025-12-20T04:28:42.571776", "MEAN_MOTION": 14.60962313, "ECCENTRICITY": 0.0001369, "INCLINATION": 98.3195, "RA_OF_ASC_NODE": 304.4481, "ARG_OF_PERICENTER": 92.9547, "MEAN_ANOMALY": 267.181, "EPHEMERIS_TYPE": 0, "CLASSIFICATION_TYPE": "U", "NORAD_CAT_ID": 28376, "ELEMENT_SET_NO": 999, "REV_AT_EPOCH": 14007, "BSTAR": 0.00015461, "MEAN_MOTION_DOT": 7.1e-06, "MEAN_MOTION_DDOT": 0}, "tle": {"line1": "1 28376U 04026A   25354.18660384  .00000710  00000+0  15461-3 0  9990", "line2": "2 28376  98.3195 304.4481 0001369  92.9547 267.1810 14.60962313140074"}}, "geometry": {"type": "Point", "coordinates": [165.084453782611, 77.26277586010177]}}]}